NORAD_CAT_ID,OBJECT_NAME,OBJECT_TYPE,EPOCH,MEAN_MOTION,ECCENTRICITY,INCLINATION,RA_OF_ASC_NODE,ARG_OF_PERICENTER,MEAN_ANOMALY,BSTAR,MEAN_MOTION_DOT,MEAN_MOTION_DDOT,TLE_LINE0,TLE_LINE1,TLE_LINE2,SEMIMAJOR_AXIS,PERIOD,APOGEE,PERIGEE,DECAYED
51138.0,STARLINK-3177,PAYLOAD,2023-11-06 19:45:17,15.08820783,0.0001284,53.2158,172.2786,90.6555,269.4584,-0.00055745,-9.144e-05,0.0,0 STARLINK-3177,1 51138U 22005AL  23310.82311955 -.00009144  00000-0 -55745-3 0  9999,2 51138  53.2158 172.2786 0001284  90.6555 269.4584 15.08820783100946,6917.939,95.439,540.692,538.916,0.0
51138.0,STARLINK-3177,PAYLOAD,2023-11-06 21:20:41,15.08796105,0.0001348,53.216,171.9819,88.1962,271.9185,-0.0011023,-0.00017767,0.0,0 STARLINK-3177,1 51138U 22005AL  23310.88936857 -.00017767  00000-0 -11023-2 0  9999,2 51138  53.2160 171.9819 0001348  88.1962 271.9185 15.08796105 99837,6918.015,95.44,540.812,538.947,0.0
51138.0,STARLINK-3177,PAYLOAD,2023-11-07 08:28:24,15.0880017,0.0001454,53.2159,169.9002,89.805,270.3109,-0.00058629,-9.596e-05,0.0,0 STARLINK-3177,1 51138U 22005AL  23311.35305927 -.00009596  00000-0 -58629-3 0  9995,2 51138  53.2159 169.9002 0001454  89.8050 270.3109 15.08800170101022,6918.002,95.44,540.873,538.861,0.0
51138.0,STARLINK-3177,PAYLOAD,2023-11-07 19:36:06,15.08813595,0.0001554,53.2157,167.8172,93.6962,266.4208,7.9258e-05,9.73e-06,0.0,0 STARLINK-3177,1 51138U 22005AL  23311.81674650  .00000973  00000-0  79258-4 0  9998,2 51138  53.2157 167.8172 0001554  93.6962 266.4208 15.08813595101099,6917.961,95.439,540.901,538.751,0.0
51138.0,STARLINK-3177,PAYLOAD,2023-11-07 21:11:30,15.08810387,0.0001399,53.2161,167.5204,102.2602,257.8547,0.00056745,8.747e-05,0.0,0 STARLINK-3177,1 51138U 22005AL  23311.88299097  .00008747  00000-0  56745-3 0  9995,2 51138  53.2161 167.5204 0001399 102.2602 257.8547 15.08810387 99982,6917.971,95.439,540.804,538.868,0.0
51138.0,STARLINK-3177,PAYLOAD,2023-11-08 19:26:54,15.08844735,0.0001355,53.2158,163.3588,78.6694,281.445,0.00080013,0.00012471,0.0,0 STARLINK-3177,1 51138U 22005AL  23312.81035217  .00012471  00000-0  80013-3 0  9995,2 51138  53.2158 163.3588 0001355  78.6694 281.4450 15.08844735101249,6917.866,95.437,540.668,538.794,0.0
51138.0,STARLINK-3177,PAYLOAD,2023-11-08 21:02:17,15.08852143,0.0001283,53.2163,163.0626,98.0584,262.0554,0.0010321,0.00016181,0.0,0 STARLINK-3177,1 51138U 22005AL  23312.87659051  .00016181  00000-0  10321-2 0  9995,2 51138  53.2163 163.0626 0001283  98.0584 262.0554 15.08852143100138,6917.843,95.437,540.596,538.821,0.0
51138.0,STARLINK-3177,PAYLOAD,2023-11-09 00:13:03,15.08859397,0.0001341,53.2156,162.4651,95.1415,264.973,0.00089098,0.00013928,0.0,0 STARLINK-3177,1 51138U 22005AL  23313.00906650  .00013928  00000-0  89098-3 0  9995,2 51138  53.2156 162.4651 0001341  95.1415 264.9730 15.08859397101278,6917.821,95.436,540.614,538.758,0.0
51138.0,STARLINK-3177,PAYLOAD,2023-11-09 17:42:17,15.08861191,0.0001341,53.2156,159.1934,94.7223,265.3922,0.00022324,3.269e-05,0.0,0 STARLINK-3177,1 51138U 22005AL  23313.73769735  .00003269  00000-0  22324-3 0  9992,2 51138  53.2156 159.1934 0001341  94.7223 265.3922 15.08861191101382,6917.816,95.436,540.608,538.753,0.0
51138.0,STARLINK-3177,PAYLOAD,2023-11-09 20:53:03,15.08866701,0.0001311,53.2155,158.5995,90.8117,269.3025,0.00051855,7.98e-05,0.0,0 STARLINK-3177,1 51138U 22005AL  23313.87017547  .00007980  00000-0  51855-3 0  9999,2 51138  53.2155 158.5995 0001311  90.8117 269.3025 15.08866701100285,6917.799,95.436,540.571,538.757,0.0
51138.0,STARLINK-3177,PAYLOAD,2023-11-10 06:25:21,15.08859306,0.0001732,53.2153,156.8149,90.8093,269.3097,0.00021157,3.082e-05,0.0,0 STARLINK-3177,1 51138U 22005AL  23314.26761070  .00003082  00000-0  21157-3 0  9991,2 51138  53.2153 156.8149 0001732  90.8093 269.3097 15.08859306100344,6917.821,95.436,540.885,538.488,0.0
51138.0,STARLINK-3177,PAYLOAD,2023-11-10 20:43:49,15.08849076,0.0001383,53.2151,154.1381,89.2009,270.9141,-8.1618e-05,-1.587e-05,0.0,0 STARLINK-3177,1 51138U 22005AL  23314.86377074 -.00001587  00000-0 -81618-4 0  9993,2 51138  53.2151 154.1381 0001383  89.2009 270.9141 15.08849076101557,6917.853,95.437,540.674,538.761,0.0
51138.0,STARLINK-3177,PAYLOAD,2023-11-10 23:54:35,15.08849054,0.000142,53.2151,153.5431,89.0047,271.1108,-7.2538e-05,-1.443e-05,0.0,0 STARLINK-3177,1 51138U 22005AL  23314.99624960 -.00001443  00000-0 -72538-4 0  9998,2 51138  53.2151 153.5431 0001420  89.0047 271.1108 15.08849054100458,6917.853,95.437,540.7,538.735,0.0
51138.0,STARLINK-3177,PAYLOAD,2023-11-11 20:34:36,15.08847604,0.0001421,53.2148,149.677,86.953,273.1625,-2.223e-05,-6.42e-06,0.0,0 STARLINK-3177,1 51138U 22005AL  23315.85736879 -.00000642  00000-0 -22230-4 0  9991,2 51138  53.2148 149.6770 0001421  86.9530 273.1625 15.08847604100589,6917.857,95.437,540.705,538.739,0.0
51138.0,STARLINK-3177,PAYLOAD,2023-11-12 18:50:00,15.08844229,0.0001465,53.2149,145.5135,87.1145,273.0015,0.00012527,1.706e-05,0.0,0 STARLINK-3177,1 51138U 22005AL  23316.78473069  .00001706  00000-0  12527-3 0  9990,2 51138  53.2149 145.5135 0001465  87.1145 273.0015 15.08844229101845,6917.867,95.437,540.746,538.719,0.0
51138.0,STARLINK-3177,PAYLOAD,2023-11-12 20:25:23,15.08843983,0.0001481,53.215,145.2161,84.5102,275.6059,0.00011207,1.496e-05,0.0,0 STARLINK-3177,1 51138U 22005AL  23316.85097051  .00001496  00000-0  11207-3 0  9991,2 51138  53.2150 145.2161 0001481  84.5102 275.6059 15.08843983100734,6917.868,95.437,540.758,538.709,0.0
51138.0,STARLINK-3177,PAYLOAD,2023-11-13 12:19:15,15.088447,0.0001566,53.2146,142.2434,77.6779,282.4388,0.0001501,2.102e-05,0.0,0 STARLINK-3177,1 51138U 22005AL  23317.51337073  .00002102  00000-0  15010-3 0  9997,2 51138  53.2146 142.2434 0001566  77.6779 282.4388 15.08844700100836,6917.866,95.437,540.814,538.648,0.0
51138.0,STARLINK-3177,PAYLOAD,2023-11-14 05:48:29,15.08845427,0.0001412,53.2146,138.9718,92.0744,268.041,0.00013062,1.792e-05,0.0,0 STARLINK-3177,1 51138U 22005AL  23318.24200806  .00001792  00000-0  13062-3 0  9990,2 51138  53.2146 138.9718 0001412  92.0744 268.0410 15.08845427102066,6917.864,95.437,540.706,538.752,0.0
51138.0,STARLINK-3177,PAYLOAD,2023-11-14 18:31:34,15.08839095,0.0001418,53.216,136.5942,83.8178,276.2975,0.00013833,1.914e-05,0.0,0 STARLINK-3177,1 51138U 22005AL  23318.77193163  .00001914  00000-0  13833-3 0  9997,2 51138  53.2160 136.5942 0001418  83.8178 276.2975 15.08839095102140,6917.883,95.438,540.729,538.767,0.0
51138.0,STARLINK-3177,PAYLOAD,2023-11-14 21:42:21,15.08839791,0.0001434,53.2156,135.9995,86.7007,273.415,0.00017033,2.424e-05,0.0,0 STARLINK-3177,1 51138U 22005AL  23318.90441102  .00002424  00000-0  17033-3 0  9994,2 51138  53.2156 135.9995 0001434  86.7007 273.4150 15.08839791101042,6917.881,95.438,540.738,538.754,0.0
51138.0,STARLINK-3177,PAYLOAD,2023-11-15 12:00:49,15.08833235,0.0001664,53.2118,133.32,100.3518,259.7662,3.6562e-07,-2.82e-06,0.0,0 STARLINK-3177,1 51138U 22005AL  23319.50057526 -.00000282  00000-0  36562-6 0  9996,2 51138  53.2118 133.3200 0001664 100.3518 259.7662 15.08833235101138,6917.901,95.438,540.917,538.615,0.0
51138.0,STARLINK-3177,PAYLOAD,2023-11-15 18:22:22,15.088302,0.000159,53.2166,132.1309,96.8803,263.237,-1.2027e-05,-4.79e-06,0.0,0 STARLINK-3177,1 51138U 22005AL  23319.76554226 -.00000479  00000-0 -12027-4 0  9990,2 51138  53.2166 132.1309 0001590  96.8803 263.2370 15.08830200102295,6917.91,95.438,540.875,538.675,0.0
51138.0,STARLINK-3177,PAYLOAD,2023-11-16 11:51:37,15.08830145,0.000155,53.2169,128.8594,96.6241,263.4928,-2.0026e-06,-3.2e-06,0.0,0 STARLINK-3177,1 51138U 22005AL  23320.49418628 -.00000320  00000-0 -20026-5 0  9991,2 51138  53.2169 128.8594 0001550  96.6241 263.4928 15.08830145101283,6917.911,95.438,540.848,538.703,0.0
51138.0,STARLINK-3177,PAYLOAD,2023-11-16 18:13:10,15.08832955,0.0001424,53.2161,127.6716,92.507,267.6085,3.6103e-05,2.87e-06,0.0,0 STARLINK-3177,1 51138U 22005AL  23320.75914471  .00000287  00000-0  36103-4 0  9999,2 51138  53.2161 127.6716 0001424  92.5070 267.6085 15.08832955101329,6917.902,95.438,540.752,538.782,0.0
51138.0,STARLINK-3177,PAYLOAD,2023-11-17 03:45:30,15.08801115,0.0001599,53.2152,125.8869,83.9557,276.1617,0.00056,8.626e-05,0.0,0 STARLINK-3177,1 51138U 22005AL  23321.15659787  .00008626  00000-0  56000-3 0  9992,2 51138  53.2152 125.8869 0001599  83.9557 276.1617 15.08801115102506,6917.999,95.44,540.97,538.758,0.0
51138.0,STARLINK-3177,PAYLOAD,2023-11-17 11:42:24,15.08831795,0.0001356,53.2156,124.4005,90.0571,270.0577,0.00017258,2.459e-05,0.0,0 STARLINK-3177,1 51138U 22005AL  23321.48778610  .00002459  00000-0  17258-3 0  9995,2 51138  53.2156 124.4005 0001356  90.0571 270.0577 15.08831795102553,6917.905,95.438,540.709,538.832,0.0
51138.0,STARLINK-3177,PAYLOAD,2023-11-17 21:14:43,15.08835846,0.0001377,53.2156,122.6166,89.9588,270.1562,0.00019633,2.838e-05,0.0,0 STARLINK-3177,1 51138U 22005AL  23321.88522551  .00002838  00000-0  19633-3 0  9990,2 51138  53.2156 122.6166 0001377  89.9588 270.1562 15.08835846101497,6917.893,95.438,540.711,538.805,0.0
51138.0,STARLINK-3177,PAYLOAD,2023-11-18 11:33:11,15.08845614,0.0001354,53.2165,119.9403,89.8359,270.2789,0.00019943,2.888e-05,0.0,0 STARLINK-3177,1 51138U 22005AL  23322.48138190  .00002888  00000-0  19943-3 0  9998,2 51138  53.2165 119.9403 0001354  89.8359 270.2789 15.08845614102701,6917.863,95.437,540.665,538.792,0.0
51138.0,STARLINK-3177,PAYLOAD,2023-11-18 17:54:43,15.0885024,0.0001361,53.2166,118.751,90.4118,269.703,0.00022983,3.373e-05,0.0,0 STARLINK-3177,1 51138U 22005AL  23322.74633793  .00003373  00000-0  22983-3 0  9994,2 51138  53.2166 118.7510 0001361  90.4118 269.7030 15.08850240101620,6917.849,95.437,540.656,538.773,0.0
51138.0,STARLINK-3177,PAYLOAD,2023-11-19 14:34:44,15.08844139,0.0001414,53.2167,114.8854,87.392,272.7234,8.8321e-05,1.118e-05,0.0,0 STARLINK-3177,1 51138U 22005AL  23323.60746202  .00001118  00000-0  88321-4 0  9994,2 51138  53.2167 114.8854 0001414  87.3920 272.7234 15.08844139101758,6917.868,95.437,540.711,538.755,0.0
